{"type": "FeatureCollection", "features": [{"type": "Feature", "geometry": {"type": "Point", "coordinates": [32.918241210976355, 0.684322530693626]}, "properties": {"school_name": "Aunt Vicky Primary School"}}, {"type": "Feature", "geometry": {"type": "Point", "coordinates": [32.886781641328966, 1.0996100387808263]}, "properties": {"school_name": "Bbaale CU\u00a0 Primary School"}}, {"type": "Feature", "geometry": {"type": "Point", "coordinates": [32.9799503646428, 0.8636823449034225]}, "properties": {"school_name": "Bisaka Parents Primary School"}}, {"type": "Feature", "geometry": {"type": "Point", "coordinates": [32.98255489931799, 0.847050603259814]}, "properties": {"school_name": "Bisaka RC Primary School"}}, {"type": "Feature", "geometry": {"type": "Point", "coordinates": [33.067954719017955, 0.6480018198191582]}, "properties": {"school_name": "Bright Future Nursery And Primary School Kangulumira"}}, {"type": "Feature", "geometry": {"type": "Point", "coordinates": [32.94684038359046, 0.661992831453975]}, "properties": {"school_name": "Bright Light Academy Primary School"}}, {"type": "Feature", "geometry": {"type": "Point", "coordinates": [32.28387634476823, 0.6491379826644111]}, "properties": {"school_name": "Bukeeka COU Primary School"}}, {"type": "Feature", "geometry": {"type": "Point", "coordinates": [32.9045661024412, 0.7728005989611093]}, "properties": {"school_name": "Bukujju UMEA Primary School"}}, {"type": "Feature", "geometry": {"type": "Point", "coordinates": [32.99614075237335, 0.8199151347600965]}, "properties": {"school_name": "Bumali UMEA Primary School"}}, {"type": "Feature", "geometry": {"type": "Point", "coordinates": [32.989717160969725, 0.7801068675374347]}, "properties": {"school_name": "Busaana CU Primary School"}}, {"type": "Feature", "geometry": {"type": "Point", "coordinates": [32.85095871778681, 0.7825614868510309]}, "properties": {"school_name": "Buwungiro Primary School"}}, {"type": "Feature", "geometry": {"type": "Point", "coordinates": [32.91213251793451, 0.6874337134708148]}, "properties": {"school_name": "Bwetyaba RC Primary School"}}, {"type": "Feature", "geometry": {"type": "Point", "coordinates": [33.02446607138843, 0.5845059262780198]}, "properties": {"school_name": "Catherine Primary School"}}, {"type": "Feature", "geometry": {"type": "Point", "coordinates": [32.86647227545974, 0.9267184309043526]}, "properties": {"school_name": "Dellan Primary School"}}, {"type": "Feature", "geometry": {"type": "Point", "coordinates": [32.87603076034405, 0.8495380821895692]}, "properties": {"school_name": "Destiny Of Joy Nursery And Primary School"}}, {"type": "Feature", "geometry": {"type": "Point", "coordinates": [32.903728763277165, 0.7098023055348456]}, "properties": {"school_name": "Ebenezer Primary School Kangulumira"}}, {"type": "Feature", "geometry": {"type": "Point", "coordinates": [32.91141345052337, 0.6906574763054144]}, "properties": {"school_name": "Faith Education Centre"}}, {"type": "Feature", "geometry": {"type": "Point", "coordinates": [32.914446889180674, 0.6903244806168662]}, "properties": {"school_name": "Getu Education Centre"}}, {"type": "Feature", "geometry": {"type": "Point", "coordinates": [32.9088709736047, 0.6987011960427731]}, "properties": {"school_name": "Gospel Valley Nursery Primary School"}}, {"type": "Feature", "geometry": {"type": "Point", "coordinates": [32.99622659080483, 0.6329580552616064]}, "properties": {"school_name": "Grace Primary School"}}, {"type": "Feature", "geometry": {"type": "Point", "coordinates": [32.951696477799906, 0.6394900598782212]}, "properties": {"school_name": "Gramos Primary School"}}, {"type": "Feature", "geometry": {"type": "Point", "coordinates": [32.910432871372116, 0.7042995044211089]}, "properties": {"school_name": "Holly Trinity Junior School Kangulumira"}}, {"type": "Feature", "geometry": {"type": "Point", "coordinates": [33.122593760432586, 0.6140685983792824]}, "properties": {"school_name": "Imam Hassan Primary School Maligita"}}, {"type": "Feature", "geometry": {"type": "Point", "coordinates": [32.98513168134987, 0.6491294649382684]}, "properties": {"school_name": "Joy Of Christ Primary School"}}, {"type": "Feature", "geometry": {"type": "Point", "coordinates": [32.938293311715434, 0.721840379516702]}, "properties": {"school_name": "Kaazi Quran Primary School"}}, {"type": "Feature", "geometry": {"type": "Point", "coordinates": [33.035378046215776, 0.5827934006975025]}, "properties": {"school_name": "Kangulumira CU Primary School"}}, {"type": "Feature", "geometry": {"type": "Point", "coordinates": [32.88614657767616, 0.7453134189249868]}, "properties": {"school_name": "Kanjuki COU Primary School"}}, {"type": "Feature", "geometry": {"type": "Point", "coordinates": [32.89153060674765, 0.7466752350996931]}, "properties": {"school_name": "Kanjuki Junior Primary School"}}, {"type": "Feature", "geometry": {"type": "Point", "coordinates": [32.890409677983286, 0.7449793256574752]}, "properties": {"school_name": "Kanjuki UMEA Primary School"}}, {"type": "Feature", "geometry": {"type": "Point", "coordinates": [33.81278950626432, 0.6435858715567773]}, "properties": {"school_name": "Kasokwe CU Primary School"}}, {"type": "Feature", "geometry": {"type": "Point", "coordinates": [32.90027908716962, 0.8862707843319901]}, "properties": {"school_name": "Kawolokota CU Primary School"}}, {"type": "Feature", "geometry": {"type": "Point", "coordinates": [30.51308829937454, -1.8915308231398065]}, "properties": {"school_name": "Kayonza Primary School"}}, {"type": "Feature", "geometry": {"type": "Point", "coordinates": [32.907506413729514, 0.7101727594197562]}, "properties": {"school_name": "Kayunga Girls Primary School"}}, {"type": "Feature", "geometry": {"type": "Point", "coordinates": [32.978127839445534, 0.6679756119831004]}, "properties": {"school_name": "Kimanya COU Primary School"}}, {"type": "Feature", "geometry": {"type": "Point", "coordinates": [32.577859302440814, 0.4418430478421916]}, "properties": {"school_name": "King Jesus Nursery And Primary School"}}, {"type": "Feature", "geometry": {"type": "Point", "coordinates": [33.01310978512568, 0.749714698088032]}, "properties": {"school_name": "Kireku COU Primary School"}}, {"type": "Feature", "geometry": {"type": "Point", "coordinates": [33.04166137237985, 0.6808680136756656]}, "properties": {"school_name": "Kirindi CU Primary School"}}, {"type": "Feature", "geometry": {"type": "Point", "coordinates": [33.04187980477664, 0.6880059521875981]}, "properties": {"school_name": "Kirindi Junior School"}}, {"type": "Feature", "geometry": {"type": "Point", "coordinates": [32.98506240357597, 0.643276515018429]}, "properties": {"school_name": "Kisa Nursery And Primary School"}}, {"type": "Feature", "geometry": {"type": "Point", "coordinates": [32.95213652768954, 0.642806738933396]}, "properties": {"school_name": "Kisoga RC Primary School"}}, {"type": "Feature", "geometry": {"type": "Point", "coordinates": [32.92585029263948, 0.6993552230547185]}, "properties": {"school_name": "Kisombwa Primary School"}}, {"type": "Feature", "geometry": {"type": "Point", "coordinates": [32.92033240193434, 0.834395001158751]}, "properties": {"school_name": "Kitatya Junior School"}}, {"type": "Feature", "geometry": {"type": "Point", "coordinates": [32.88156835049015, 0.8406571224820423]}, "properties": {"school_name": "Kitimbwa Light SDA Primary School"}}, {"type": "Feature", "geometry": {"type": "Point", "coordinates": [32.51475825900061, 0.485122665812235]}, "properties": {"school_name": "Kungu CU Primary School"}}, {"type": "Feature", "geometry": {"type": "Point", "coordinates": [33.05103644722893, 0.520251042873247]}, "properties": {"school_name": "Kwanza Junior Primary School"}}, {"type": "Feature", "geometry": {"type": "Point", "coordinates": [33.02283167833339, 0.586245224064048]}, "properties": {"school_name": "Kyabato Primary School"}}, {"type": "Feature", "geometry": {"type": "Point", "coordinates": [32.88113057589572, 0.7792354797432582]}, "properties": {"school_name": "Kyanya COU Primary School"}}, {"type": "Feature", "geometry": {"type": "Point", "coordinates": [32.07067572508865, 0.150835609924638]}, "properties": {"school_name": "Kyerima UMEA Primary School"}}, {"type": "Feature", "geometry": {"type": "Point", "coordinates": [33.03127527191558, 0.27191462369276]}, "properties": {"school_name": "Lugasa Primary School"}}, {"type": "Feature", "geometry": {"type": "Point", "coordinates": [32.96577505761663, 0.6775713913553679]}, "properties": {"school_name": "Mataba Muslim Quaran Primary School"}}, {"type": "Feature", "geometry": {"type": "Point", "coordinates": [33.01900860850679, 0.5823089517352454]}, "properties": {"school_name": "Merryland Primary School Kitimbwa"}}, {"type": "Feature", "geometry": {"type": "Point", "coordinates": [32.9517781175531, 0.2404949550805004]}, "properties": {"school_name": "Mirembe Infant School"}}, {"type": "Feature", "geometry": {"type": "Point", "coordinates": [32.9142853616537, 1.1741728185105935]}, "properties": {"school_name": "Misanga Junior Primary School"}}, {"type": "Feature", "geometry": {"type": "Point", "coordinates": [31.531438975677737, 1.061238460454074]}, "properties": {"school_name": "Morning Star Primary School"}}, {"type": "Feature", "geometry": {"type": "Point", "coordinates": [32.93654660691475, 0.7207447839556075]}, "properties": {"school_name": "Mugema Primary School"}}, {"type": "Feature", "geometry": {"type": "Point", "coordinates": [33.03395865479361, 0.6983843356202765]}, "properties": {"school_name": "Musiitwa UMEA Primary School"}}, {"type": "Feature", "geometry": {"type": "Point", "coordinates": [33.03617801514392, 0.7514398809975731]}, "properties": {"school_name": "Nakakandwa COU Primary School"}}, {"type": "Feature", "geometry": {"type": "Point", "coordinates": [33.03721234196787, 0.7271908748776965]}, "properties": {"school_name": "Nakatooke RC Primary School"}}, {"type": "Feature", "geometry": {"type": "Point", "coordinates": [32.96406129372287, 0.8247704001450435]}, "properties": {"school_name": "Nakivubo UMEA Primary School"}}, {"type": "Feature", "geometry": {"type": "Point", "coordinates": [32.90773811904724, 0.7040392730863546]}, "properties": {"school_name": "Namagabi Bishop Brown Primary School"}}, {"type": "Feature", "geometry": {"type": "Point", "coordinates": [32.91240379208575, 0.6986525365888311]}, "properties": {"school_name": "Namagabi UMEA Primary School"}}, {"type": "Feature", "geometry": {"type": "Point", "coordinates": [32.943061441193784, 0.6496734277524199]}, "properties": {"school_name": "Namulanda COU Primary School"}}, {"type": "Feature", "geometry": {"type": "Point", "coordinates": [32.93475508210179, 0.6568289526438593]}, "properties": {"school_name": "Namulanda RC Primary School"}}, {"type": "Feature", "geometry": {"type": "Point", "coordinates": [32.99584674291395, 0.8693475873454607]}, "properties": {"school_name": "Namutya COU Primary School"}}, {"type": "Feature", "geometry": {"type": "Point", "coordinates": [32.98517111685999, 0.6441962870168799]}, "properties": {"school_name": "Nazigo Noor Primary School"}}, {"type": "Feature", "geometry": {"type": "Point", "coordinates": [33.073647720711264, 0.6081948109646871]}, "properties": {"school_name": "Nile View Primary School"}}, {"type": "Feature", "geometry": {"type": "Point", "coordinates": [33.04737489664859, 0.5339387820441909]}, "properties": {"school_name": "Nyiize RC Primary School"}}, {"type": "Feature", "geometry": {"type": "Point", "coordinates": [33.051605044768245, 0.5290899163637981]}, "properties": {"school_name": "Nyiize SDA Primary School"}}, {"type": "Feature", "geometry": {"type": "Point", "coordinates": [32.960491105857564, 0.6713591551722414]}, "properties": {"school_name": "Obadia Sajjabi Community Primary School"}}, {"type": "Feature", "geometry": {"type": "Point", "coordinates": [32.911729132728304, 0.6808839381674778]}, "properties": {"school_name": "Orion Junior School"}}, {"type": "Feature", "geometry": {"type": "Point", "coordinates": [33.03628714752352, 0.55732758972254]}, "properties": {"school_name": "Seeta Moslem Primary School"}}, {"type": "Feature", "geometry": {"type": "Point", "coordinates": [32.815708899842654, 1.2526821520557858]}, "properties": {"school_name": "Sokoso Primary School"}}, {"type": "Feature", "geometry": {"type": "Point", "coordinates": [32.98944915217719, 0.6395569720151669]}, "properties": {"school_name": "St Anthony Nazigo Junior School"}}, {"type": "Feature", "geometry": {"type": "Point", "coordinates": [32.9112410524412, 0.6891528367761904]}, "properties": {"school_name": "Star Academy Primary School"}}, {"type": "Feature", "geometry": {"type": "Point", "coordinates": [32.81265646207889, 1.1091475285945305]}, "properties": {"school_name": "Tangoye Parents Primary School"}}, {"type": "Feature", "geometry": {"type": "Point", "coordinates": [32.889700904488556, 0.7276503337782866]}, "properties": {"school_name": "Tente Primary School"}}, {"type": "Feature", "geometry": {"type": "Point", "coordinates": [32.998501360387586, 0.6476706165403557]}, "properties": {"school_name": "Victorious Primary School"}}, {"type": "Feature", "geometry": {"type": "Point", "coordinates": [33.03123855960509, 0.630186550840618]}, "properties": {"school_name": "Wabirongo Primary School"}}, {"type": "Feature", "geometry": {"type": "Point", "coordinates": [32.88691589146216, 0.807964336857613]}, "properties": {"school_name": "Way Forward Junior School"}}, {"type": "Feature", "geometry": {"type": "Point", "coordinates": [32.96031613003804, 0.6589784098414436]}, "properties": {"school_name": "Bridge Light College Secondary School Suuka"}}, {"type": "Feature", "geometry": {"type": "Point", "coordinates": [33.01848683500541, 0.712664674766081]}, "properties": {"school_name": "Bukamba Nile Secondary School"}}, {"type": "Feature", "geometry": {"type": "Point", "coordinates": [32.988997428988405, 0.7786675744610223]}, "properties": {"school_name": "Busaana Secondary School"}}, {"type": "Feature", "geometry": {"type": "Point", "coordinates": [32.80314268894667, 1.3739693567947748]}, "properties": {"school_name": "Galiraya Seed Secondary School"}}, {"type": "Feature", "geometry": {"type": "Point", "coordinates": [32.956492664471064, 0.6608816265142307]}, "properties": {"school_name": "Green Valley High School"}}, {"type": "Feature", "geometry": {"type": "Point", "coordinates": [32.907934896632675, 0.7055427818356442]}, "properties": {"school_name": "Green Vine College"}}, {"type": "Feature", "geometry": {"type": "Point", "coordinates": [33.004855454055004, 0.8305473355766089]}, "properties": {"school_name": "Hope Christian High School"}}, {"type": "Feature", "geometry": {"type": "Point", "coordinates": [33.028075977263136, 0.5891488978312917]}, "properties": {"school_name": "Kangulumira Public Secondary School"}}, {"type": "Feature", "geometry": {"type": "Point", "coordinates": [32.88734248895018, 0.7478698063874785]}, "properties": {"school_name": "Kanjuki Senior Secondary School"}}, {"type": "Feature", "geometry": {"type": "Point", "coordinates": [32.90335644966357, 0.7091585431189451]}, "properties": {"school_name": "Kayunga Light College Senior Secondary School"}}, {"type": "Feature", "geometry": {"type": "Point", "coordinates": [32.91983820495027, 0.6861664243547332]}, "properties": {"school_name": "Kingstone Senior Secondary School"}}, {"type": "Feature", "geometry": {"type": "Point", "coordinates": [33.01880163157865, 0.5895009091281181]}, "properties": {"school_name": "Kisega High School"}}, {"type": "Feature", "geometry": {"type": "Point", "coordinates": [32.87452964847791, 0.8500627309156522]}, "properties": {"school_name": "Kitimbwa High School"}}, {"type": "Feature", "geometry": {"type": "Point", "coordinates": [32.93581617360647, 0.720436995036023]}, "properties": {"school_name": "Mugema Senior Secondary School"}}, {"type": "Feature", "geometry": {"type": "Point", "coordinates": [33.03288293127737, 0.6990940521003481]}, "properties": {"school_name": "Musiitwa Seed Secondary School"}}, {"type": "Feature", "geometry": {"type": "Point", "coordinates": [32.89179480244106, 0.7300182106892042]}, "properties": {"school_name": "Muyalen High School"}}, {"type": "Feature", "geometry": {"type": "Point", "coordinates": [32.909065802441106, 0.7045891374988242]}, "properties": {"school_name": "Namagabi Senior Secondary School"}}, {"type": "Feature", "geometry": {"type": "Point", "coordinates": [32.983645160113895, 0.644338651845536]}, "properties": {"school_name": "Nazigo Town Senior Secondary School"}}, {"type": "Feature", "geometry": {"type": "Point", "coordinates": [33.02307319951237, 0.6651990430204574]}, "properties": {"school_name": "Outspan Senior Secondary School Nazigo"}}, {"type": "Feature", "geometry": {"type": "Point", "coordinates": [32.95340563169124, 0.6625137453198205]}, "properties": {"school_name": "Suuka Islamic Secondary School"}}, {"type": "Feature", "geometry": {"type": "Point", "coordinates": [32.98513524232806, 0.643978455117989]}, "properties": {"school_name": "St Apollo Senior Secondary School Nazigo"}}, {"type": "Feature", "geometry": {"type": "Point", "coordinates": [32.99643002448961, 0.640504877401421]}, "properties": {"school_name": "St Kalemba Senior Secondary School Nazigo"}}, {"type": "Feature", "geometry": {"type": "Point", "coordinates": [35.06388729435192, -0.6810209726072183]}, "properties": {"school_name": "St Mathias Mulumba Secondary School"}}, {"type": "Feature", "geometry": {"type": "Point", "coordinates": [32.98183625097558, 0.7312827981029075]}, "properties": {"school_name": "St Peters Kibuzi Senior Secondary School"}}, {"type": "Feature", "geometry": {"type": "Point", "coordinates": [33.03439032284931, 0.5830639545284295]}, "properties": {"school_name": "Uganda Martrys Cen Senior Secondary School"}}, {"type": "Feature", "geometry": {"type": "Point", "coordinates": [32.90971160864815, 0.7117983881901382]}, "properties": {"school_name": "Uganda Martrys Secondary School Kayunga"}}, {"type": "Feature", "geometry": {"type": "Point", "coordinates": [32.99612445386274, 0.6317338083913996]}, "properties": {"school_name": "Yale High School"}}]}